[{"OBJECT_NAME":"STARLINK-35327","OBJECT_ID":"2025-259T","EPOCH":"2026-03-09T22:29:05.646624","MEAN_MOTION":15.27606617,"ECCENTRICITY":0.00033465,"INCLINATION":43.0054,"RA_OF_ASC_NODE":272.5565,"ARG_OF_PERICENTER":265.1757,"MEAN_ANOMALY":94.8713,"EPHEMERIS_TYPE":0,"CLASSIFICATION_TYPE":"U","NORAD_CAT_ID":66439,"ELEMENT_SET_NO":999,"REV_AT_EPOCH":1953,"BSTAR":0.00092889231,"MEAN_MOTION_DOT":0.0002541,"MEAN_MOTION_DDOT":0},{"OBJECT_NAME":"KUIPER-00177","OBJECT_ID":"2026-030C","EPOCH":"2026-03-09T22:40:13.687104","MEAN_MOTION":15.35467467,"ECCENTRICITY":0.00021592,"INCLINATION":51.8837,"RA_OF_ASC_NODE":217.7875,"ARG_OF_PERICENTER":172.5497,"MEAN_ANOMALY":187.5522,"EPHEMERIS_TYPE":0,"CLASSIFICATION_TYPE":"U","NORAD_CAT_ID":67766,"ELEMENT_SET_NO":999,"REV_AT_EPOCH":513,"BSTAR":-0.015747205,"MEAN_MOTION_DOT":-0.00515419,"MEAN_MOTION_DDOT":0}]
